NORAD_CAT_ID,OBJECT_NAME,OBJECT_TYPE,EPOCH,MEAN_MOTION,ECCENTRICITY,INCLINATION,RA_OF_ASC_NODE,ARG_OF_PERICENTER,MEAN_ANOMALY,BSTAR,MEAN_MOTION_DOT,MEAN_MOTION_DDOT,TLE_LINE0,TLE_LINE1,TLE_LINE2,SEMIMAJOR_AXIS,PERIOD,APOGEE,PERIGEE,DECAYED
51986.0,STARLINK-3645,PAYLOAD,2022-05-30 22:00:00,15.08855705,0.0001746,53.2181,108.6559,65.6295,315.2087,-0.0022309,-0.00035633,0.0,0 STARLINK-3645,1 51986U 22025AG  22150.91667824 -.00035633  00000-0 -22309-2 0  9993,2 51986  53.2181 108.6559 0001746  65.6295 315.2087 15.08855705  1300,6917.831999999999,95.437,540.905,538.49,0.0
51986.0,STARLINK-3645,PAYLOAD,2022-05-31 04:16:04,15.08837587,0.0001702,53.2187,107.4835,58.1949,301.9209,1.2125e-05,-9.5e-07,0.0,0 STARLINK-3645,1 51986U 22025AG  22151.17782538 -.00000095  00000-0  12125-4 0  9992,2 51986  53.2187 107.4835 0001702  58.1949 301.9209 15.08837587 14046,6917.888000000001,95.438,540.93,538.575,0.0
51986.0,STARLINK-3645,PAYLOAD,2022-05-31 06:00:02,15.08809881,0.0001942,53.2179,107.1613,60.1577,332.3437,0.0014939,0.00023548,0.0,0 STARLINK-3645,1 51986U 22025AG  22151.25002315  .00023548  00000-0  14939-2 0  9999,2 51986  53.2179 107.1613 0001942  60.1577 332.3437 15.08809881  1306,6917.972,95.439,541.181,538.494,0.0
51986.0,STARLINK-3645,PAYLOAD,2022-05-31 20:09:56,15.08828125,0.0001641,53.2182,104.5101,57.1952,302.9198,-5.2589e-05,-1.125e-05,0.0,0 STARLINK-3645,1 51986U 22025AG  22151.84023648 -.00001125  00000-0 -52589-4 0  9990,2 51986  53.2182 104.5101 0001641  57.1952 302.9198 15.08828125 14147,6917.917,95.438,540.9169999999998,538.646,0.0
51986.0,STARLINK-3645,PAYLOAD,2022-05-31 22:00:00,15.08840769,0.0001831,53.218,104.1675,68.5355,347.05,2.7622e-05,1.52e-06,0.0,0 STARLINK-3645,1 51986U 22025AG  22151.91667824  .00000152  00000-0  27622-4 0  9995,2 51986  53.2180 104.1675 0001831  68.5355 347.0500 15.08840769  1300,6917.878000000002,95.438,541.01,538.476,0.0
51986.0,STARLINK-3645,PAYLOAD,2022-06-01 04:00:00,15.08836798,0.0001953,53.2178,103.0468,63.1079,271.1779,-4.952600000000001e-05,-1.076e-05,0.0,0 STARLINK-3645,1 51986U 22025AG  22152.16667824 -.00001076  00000-0 -49526-4 0  9998,2 51986  53.2178 103.0468 0001953  63.1079 271.1779 15.08836798 14197,6917.89,95.438,541.106,538.404,0.0
51986.0,STARLINK-3645,PAYLOAD,2022-06-01 20:00:01,15.08846506,0.0001829,53.2178,100.0526,70.2052,287.2694,0.00031709,4.763e-05,0.0,0 STARLINK-3645,1 51986U 22025AG  22152.83334491  .00004763  00000-0  31709-3 0  9990,2 51986  53.2178 100.0526 0001829  70.2052 287.2694 15.08846506  1302,6917.861,95.437,540.991,538.46,0.0
51986.0,STARLINK-3645,PAYLOAD,2022-06-03 03:48:25,15.088377599999998,0.0001778,53.2183,94.103,64.4745,295.643,9.7406e-06,-1.33e-06,0.0,0 STARLINK-3645,1 51986U 22025AG  22154.15863389 -.00000133  00000-0  97406-5 0  9996,2 51986  53.2183  94.1030 0001778  64.4745 295.6430 15.08837760 14495,6917.887,95.438,540.982,538.5219999999998,0.0
51986.0,STARLINK-3645,PAYLOAD,2022-06-03 13:20:44,15.08842778,0.0001818,53.2185,92.3194,65.1501,294.968,2.7232e-05,1.45e-06,0.0,0 STARLINK-3645,1 51986U 22025AG  22154.55607000  .00000145  00000-0  27232-4 0  9997,2 51986  53.2185  92.3194 0001818  65.1501 294.9680 15.08842778 13461,6917.871999999999,95.437,540.995,538.479,0.0
51986.0,STARLINK-3645,PAYLOAD,2022-06-04 02:03:48,15.08849862,0.0001994,53.2185,89.9406,66.7466,293.3736,3.1002e-05,2.05e-06,0.0,0 STARLINK-3645,1 51986U 22025AG  22155.08598370  .00000205  00000-0  31002-4 0  9992,2 51986  53.2185  89.9406 0001994  66.7466 293.3736 15.08849862 14637,6917.85,95.437,541.095,538.336,0.0
51986.0,STARLINK-3645,PAYLOAD,2022-06-04 13:11:31,15.08838383,0.0002181,53.2197,87.8573,72.9407,287.1824,-2.8784e-05,-7.46e-06,0.0,0 STARLINK-3645,1 51986U 22025AG  22155.54967154 -.00000746  00000-0 -28784-4 0  9998,2 51986  53.2197  87.8573 0002181  72.9407 287.1824 15.08838383 13617,6917.885,95.438,541.259,538.242,0.0
51986.0,STARLINK-3645,PAYLOAD,2022-06-05 20:00:01,15.08837724,0.0001846,53.2188,82.0972,69.554,67.0514,0.00030813,4.619e-05,0.0,0 STARLINK-3645,1 51986U 22025AG  22156.83334491  .00004619  00000-0  30813-3 0  9999,2 51986  53.2188  82.0972 0001846  69.5540  67.0514 15.08837724 14906,6917.887,95.438,541.029,538.475,0.0
51986.0,STARLINK-3645,PAYLOAD,2022-06-05 22:00:00,15.08848524,0.0001858,53.2187,81.7237,67.8415,161.6594,-0.0012547,-0.00020206,0.0,0 STARLINK-3645,1 51986U 22025AG  22156.91667824 -.00020206  00000-0 -12547-2 0  9992,2 51986  53.2187  81.7237 0001858  67.8415 161.6594 15.08848524  1309,6917.854,95.437,541.005,538.434,0.0
51986.0,STARLINK-3645,PAYLOAD,2022-06-06 14:00:01,15.08838739,0.0001771999999999,53.2186,78.7304,68.49,184.2114,0.00048476,7.435e-05,0.0,0 STARLINK-3645,1 51986U 22025AG  22157.58334491  .00007435  00000-0  48476-3 0  9995,2 51986  53.2186  78.7304 0001772  68.4900 184.2114 15.08838739  1306,6917.884,95.438,540.975,538.523,0.0
51986.0,STARLINK-3645,PAYLOAD,2022-06-06 22:00:00,15.08851202,0.0001774,53.2187,77.2347,68.4093,195.8908,-0.0022333,-0.00035667,0.0,0 STARLINK-3645,1 51986U 22025AG  22157.91667824 -.00035667  00000-0 -22333-2 0  9994,2 51986  53.2187  77.2347 0001774  68.4093 195.8908 15.08851202  1302,6917.846,95.437,540.938,538.484,0.0
51986.0,STARLINK-3645,PAYLOAD,2022-06-07 06:00:00,15.08816953,0.000181,53.2183,75.7394,62.1896,213.7093,0.002715,0.00043159,0.0,0 STARLINK-3645,1 51986U 22025AG  22158.25001157  .00043159  00000-0  27150-2 0  9998,2 51986  53.2183  75.7394 0001810  62.1896 213.7093 15.08816953 15119,6917.951,95.439,541.068,538.564,0.0
51986.0,STARLINK-3645,PAYLOAD,2022-06-07 14:00:01,15.08820711,0.0001682,53.2184,74.2413,70.0093,217.482,0.0024558,0.00038992,0.0,0 STARLINK-3645,1 51986U 22025AG  22158.58334491  .00038992  00000-0  24558-2 0  9992,2 51986  53.2184  74.2413 0001682  70.0093 217.4820 15.08820711  1302,6917.939,95.439,540.9680000000002,538.641,0.0
51986.0,STARLINK-3645,PAYLOAD,2022-06-07 22:00:00,15.08877622,0.0001678,53.2185,72.7458,69.5834,229.4981,-0.0041332,-0.00065537,0.0,0 STARLINK-3645,1 51986U 22025AG  22158.91667824 -.00065537  00000-0 -41332-2 0  9994,2 51986  53.2185  72.7458 0001678  69.5834 229.4981 15.08877622 15215,6917.765,95.435,540.7909999999998,538.47,0.0
51986.0,STARLINK-3645,PAYLOAD,2022-06-08 14:00:01,15.08823967,0.0001545,53.2181,69.7522,71.6856,250.6,0.0014234,0.00022428,0.0,0 STARLINK-3645,1 51986U 22025AG  22159.58334491  .00022428  00000-0  14234-2 0  9990,2 51986  53.2181  69.7522 0001545  71.6856 250.6000 15.08823967 15312,6917.929,95.439,540.863,538.726,0.0
51986.0,STARLINK-3645,PAYLOAD,2022-06-08 22:00:01,15.08837672,0.000158,53.2183,68.2568,69.4782,264.4504,-0.0023202,-0.00037022,0.0,0 STARLINK-3645,1 51986U 22025AG  22159.91668981 -.00037022  00000-0 -23202-2 0  9994,2 51986  53.2183  68.2568 0001580  69.4782 264.4504 15.08837672  1304,6917.888000000001,95.438,540.846,538.659,0.0
51986.0,STARLINK-3645,PAYLOAD,2022-06-09 06:00:00,15.08811986,0.0001598,53.2177,66.7613,62.8725,282.5703,0.0015734,0.00024822,0.0,0 STARLINK-3645,1 51986U 22025AG  22160.25001157  .00024822  00000-0  15734-2 0  9992,2 51986  53.2177  66.7613 0001598  62.8725 282.5703 15.08811986 15413,6917.965999999999,95.439,540.937,538.726,0.0
51986.0,STARLINK-3645,PAYLOAD,2022-06-09 14:00:01,15.08802016,0.0001515,53.2179,65.2632,72.3259,284.6979,0.0031105,0.00049512,0.0,0 STARLINK-3645,1 51986U 22025AG  22160.58334491  .00049512  00000-0  31105-2 0  9991,2 51986  53.2179  65.2632 0001515  72.3259 284.6979 15.08802016  1302,6917.996,95.44,540.91,538.813,0.0
51986.0,STARLINK-3645,PAYLOAD,2022-06-09 22:00:00,15.08847122,0.0001618,53.2182,63.7681,69.5582,299.0338,-0.0015224,-0.0002444,0.0,0 STARLINK-3645,1 51986U 22025AG  22160.91667824 -.00024440  00000-0 -15224-2 0  9996,2 51986  53.2182  63.7681 0001618  69.5582 299.0338 15.08847122  1300,6917.859,95.437,540.8430000000002,538.604,0.0
51986.0,STARLINK-3645,PAYLOAD,2022-06-10 06:00:02,15.08834311,0.0001641,53.2178,62.2719,63.6089,316.6378,0.0011739,0.00018441,0.0,0 STARLINK-3645,1 51986U 22025AG  22161.25002315  .00018441  00000-0  11739-2 0  9991,2 51986  53.2178  62.2719 0001641  63.6089 316.6378 15.08834311 15563,6917.898,95.438,540.898,538.628,0.0
51986.0,STARLINK-3645,PAYLOAD,2022-06-10 14:00:01,15.088223499999998,0.0001544,53.2181,60.7739,72.4758,319.3136,0.0030539,0.00048627,0.0,0 STARLINK-3645,1 51986U 22025AG  22161.58334491  .00048627  00000-0  30539-2 0  9998,2 51986  53.2181  60.7739 0001544  72.4758 319.3136 15.08822350  1304,6917.934,95.439,540.867,538.731,0.0
51986.0,STARLINK-3645,PAYLOAD,2022-06-10 22:00:00,15.08867277,0.0001626,53.2184,59.2789,68.35300000000001,335.0311,-0.0038893,-0.00061702,0.0,0 STARLINK-3645,1 51986U 22025AG  22161.91667824 -.00061702  00000-0 -38893-2 0  9996,2 51986  53.2184  59.2789 0001626  68.3530 335.0311 15.08867277  1305,6917.797,95.436,540.7869999999998,538.5369999999998,0.0
51986.0,STARLINK-3645,PAYLOAD,2022-06-11 04:00:00,15.08809522,0.0001629999999999,53.2184,58.1574,62.7253,259.3683,0.003178,0.00050611,0.0,0 STARLINK-3645,1 51986U 22025AG  22162.16667824  .00050611  00000-0  31780-2 0  9997,2 51986  53.2184  58.1574 0001630  62.7253 259.3683 15.08809522 15708,6917.974,95.439,540.966,538.711,0.0
51986.0,STARLINK-3645,PAYLOAD,2022-06-11 14:00:01,15.08815588,0.0001520999999999,53.2186,56.285,71.0692,355.5102,0.0032713,0.00052125,0.0,0 STARLINK-3645,1 51986U 22025AG  22162.58334491  .00052125  00000-0  32713-2 0  9993,2 51986  53.2186  56.2850 0001521  71.0692 355.5102 15.08815588 15765,6917.955,95.439,540.872,538.768,0.0
51986.0,STARLINK-3645,PAYLOAD,2022-06-11 22:00:00,15.08866243,0.000164,53.2189,54.7902,66.8621,11.3049,-0.0021434,-0.00034263,0.0,0 STARLINK-3645,1 51986U 22025AG  22162.91667824 -.00034263  00000-0 -21434-2 0  9992,2 51986  53.2189  54.7902 0001640  66.8621  11.3049 15.08866243  1301,6917.8,95.436,540.8,538.531,0.0
